FLOCK 4H-34             
1 66737U 25276BZ  26201.15183294  .00004056  00000+0  18668-3 0  9991
2 66737  97.4222 274.4908 0003034 157.2483 202.8888 15.20876873 34696
FLOCK 4H-35             
1 66738U 25276CA  26201.12720415  .00003418  00000+0  15731-3 0  9990
2 66738  97.4179 274.4028 0002959 142.4304 217.7139 15.20990114 34738
FLOCK 4H-36             
1 66739U 25276CB  26200.77171462  .00003422  00000+0  15858-3 0  9998
2 66739  97.4229 274.1090 0002905 168.7241 191.4060 15.20752471 35388
