{"fetched_at":"2026-07-20T18:28:56.744Z","source":"https://celestrak.org/NORAD/elements/gp.php?GROUP=planet&FORMAT=JSON","constellation":"superdove","records":[{"OBJECT_NAME":"FLOCK 4H-34","OBJECT_ID":"2025-276BZ","EPOCH":"2026-07-20T03:38:38.366016","CLASSIFICATION_TYPE":"U","MEAN_MOTION":15.20876873,"ECCENTRICITY":0.00030346,"INCLINATION":97.4222,"RA_OF_ASC_NODE":274.4908,"ARG_OF_PERICENTER":157.2483,"MEAN_ANOMALY":202.8888,"EPHEMERIS_TYPE":0,"NORAD_CAT_ID":66737,"ELEMENT_SET_NO":999,"REV_AT_EPOCH":3469,"BSTAR":0.00018668478,"MEAN_MOTION_DOT":0.00004056,"MEAN_MOTION_DDOT":0},{"OBJECT_NAME":"FLOCK 4H-35","OBJECT_ID":"2025-276CA","EPOCH":"2026-07-20T03:03:10.438560","CLASSIFICATION_TYPE":"U","MEAN_MOTION":15.20990114,"ECCENTRICITY":0.0002959,"INCLINATION":97.4179,"RA_OF_ASC_NODE":274.4028,"ARG_OF_PERICENTER":142.4304,"MEAN_ANOMALY":217.7139,"EPHEMERIS_TYPE":0,"NORAD_CAT_ID":66738,"ELEMENT_SET_NO":999,"REV_AT_EPOCH":3473,"BSTAR":0.00015730902,"MEAN_MOTION_DOT":0.00003418,"MEAN_MOTION_DDOT":0},{"OBJECT_NAME":"FLOCK 4H-36","OBJECT_ID":"2025-276CB","EPOCH":"2026-07-19T18:31:16.143168","CLASSIFICATION_TYPE":"U","MEAN_MOTION":15.20752471,"ECCENTRICITY":0.00029053,"INCLINATION":97.4229,"RA_OF_ASC_NODE":274.109,"ARG_OF_PERICENTER":168.7241,"MEAN_ANOMALY":191.406,"EPHEMERIS_TYPE":0,"NORAD_CAT_ID":66739,"ELEMENT_SET_NO":999,"REV_AT_EPOCH":3538,"BSTAR":0.00015858104,"MEAN_MOTION_DOT":0.00003422,"MEAN_MOTION_DDOT":0}]}
